NORAD_CAT_ID,OBJECT_NAME,OBJECT_TYPE,EPOCH,MEAN_MOTION,ECCENTRICITY,INCLINATION,RA_OF_ASC_NODE,ARG_OF_PERICENTER,MEAN_ANOMALY,BSTAR,MEAN_MOTION_DOT,MEAN_MOTION_DDOT,TLE_LINE0,TLE_LINE1,TLE_LINE2,SEMIMAJOR_AXIS,PERIOD,APOGEE,PERIGEE,DECAYED
55960.0,STARLINK-5938,PAYLOAD,2024-04-09 01:36:32,14.9833133,0.0003113,70.0019,228.5463,269.2784,90.8018,2.5624e-05,2.13e-06,0.0,0 STARLINK-5938,1 55960U 23037AY  24100.06704177  .00000213  00000-0  25624-4 0  9998,2 55960  70.0019 228.5463 0003113 269.2784  90.8018 14.98331330 60018,6950.189,96.107,574.217,569.89,0.0
55960.0,STARLINK-5938,PAYLOAD,2024-04-09 14:25:37,14.98329759,0.0003019,70.0015,227.1994,270.4388,89.6425,-1.857e-05,-3.15e-06,0.0,0 STARLINK-5938,1 55960U 23037AY  24100.60112410 -.00000315  00000-0 -18570-4 0  9998,2 55960  70.0015 227.1994 0003019 270.4388  89.6425 14.98329759 59756,6950.194,96.107,574.157,569.96,0.0
55960.0,STARLINK-5938,PAYLOAD,2024-04-10 09:39:13,14.98329709,0.0002985,70.0016,225.1798,270.0843,89.9974,-1.389e-05,-2.59e-06,0.0,0 STARLINK-5938,1 55960U 23037AY  24101.40224411 -.00000259  00000-0 -13890-4 0  9999,2 55960  70.0016 225.1798 0002985 270.0843  89.9974 14.98329709 60210,6950.194,96.107,574.133,569.984,0.0
55960.0,STARLINK-5938,PAYLOAD,2024-04-10 14:27:38,14.98328414,0.0003002,70.002,224.6751,269.156,90.9255,-3.1607e-05,-4.7e-06,0.0,0 STARLINK-5938,1 55960U 23037AY  24101.60252542 -.00000470  00000-0 -31607-4 0  9998,2 55960  70.0020 224.6751 0003002 269.1560  90.9255 14.98328414 59904,6950.198,96.107,574.149,569.976,0.0
55960.0,STARLINK-5938,PAYLOAD,2024-04-10 17:39:55,14.9831471,0.0003112,70.0027,224.3387,266.6722,93.4081,-0.00018691,-2.322e-05,0.0,0 STARLINK-5938,1 55960U 23037AY  24101.73605884 -.00002322  00000-0 -18691-3 0  9998,2 55960  70.0027 224.3387 0003112 266.6722  93.4081 14.98314710 60267,6950.24,96.108,574.268,569.942,0.0
55960.0,STARLINK-5938,PAYLOAD,2024-04-11 12:53:32,14.9831846,0.0003258,70.0007,222.3188,268.9517,91.1269,-6.5463e-05,-8.74e-06,0.0,0 STARLINK-5938,1 55960U 23037AY  24102.53717918 -.00000874  00000-0 -65463-4 0  9999,2 55960  70.0007 222.3188 0003258 268.9517  91.1269 14.98318460 60382,6950.229,96.108,574.358,569.829,0.0
55960.0,STARLINK-5938,PAYLOAD,2024-04-11 14:29:40,14.98321496,0.0003419,69.9998,222.1507,270.1138,89.9629,-5.2505e-05,-7.19e-06,0.0,0 STARLINK-5938,1 55960U 23037AY  24102.60393695 -.00000719  00000-0 -52505-4 0  9990,2 55960  69.9998 222.1507 0003419 270.1138  89.9629 14.98321496 60056,6950.219,96.108,574.46,569.708,0.0
55960.0,STARLINK-5938,PAYLOAD,2024-04-11 16:05:47,14.98325112,0.000325,69.9999,221.9819,269.3791,90.6996,-6.7292e-06,-1.73e-06,0.0,0 STARLINK-5938,1 55960U 23037AY  24102.67069390 -.00000173  00000-0 -67292-5 0  9993,2 55960  69.9999 221.9819 0003250 269.3791  90.6996 14.98325112 60402,6950.208,96.107,574.332,569.814,0.0
55960.0,STARLINK-5938,PAYLOAD,2024-04-12 12:55:31,14.98337799,0.0003226,70.001,219.7934,268.891,91.188,0.00013786,1.553e-05,0.0,0 STARLINK-5938,1 55960U 23037AY  24103.53856142  .00001553  00000-0  13786-3 0  9996,2 55960  70.0010 219.7934 0003226 268.8910  91.1880 14.98337799 60538,6950.169,96.106,574.276,569.792,0.0
55960.0,STARLINK-5938,PAYLOAD,2024-04-12 14:31:39,14.9834063,0.0003228,70.0005,219.6246,267.6019,92.477,0.00016509,1.878e-05,0.0,0 STARLINK-5938,1 55960U 23037AY  24103.60531839  .00001878  00000-0  16509-3 0  9993,2 55960  70.0005 219.6246 0003228 267.6019  92.4770 14.98340630 60200,6950.16,96.106,574.269,569.782,0.0
55960.0,STARLINK-5938,PAYLOAD,2024-04-13 11:21:24,14.98334345,0.0002984,70.0008,217.4364,267.772,92.3097,9.7277e-05,1.068e-05,0.0,0 STARLINK-5938,1 55960U 23037AY  24104.47320297  .00001068  00000-0  97277-4 0  9996,2 55960  70.0008 217.4364 0002984 267.7720  92.3097 14.98334345 60676,6950.179,96.107,574.118,569.971,0.0
55960.0,STARLINK-5938,PAYLOAD,2024-04-13 14:33:40,14.98336197,0.0002919,70.001,217.1003,266.0909,93.9916,9.252e-05,1.011e-05,0.0,0 STARLINK-5938,1 55960U 23037AY  24104.60672147  .00001011  00000-0  92520-4 0  9999,2 55960  70.0010 217.1003 0002919 266.0909  93.9916 14.98336197 60354,6950.174,96.107,574.067,570.01,0.0
55960.0,STARLINK-5938,PAYLOAD,2024-04-13 17:45:56,14.98337313,0.0002871,70.0012,216.7638,266.1625,93.9206,0.00013464,1.514e-05,0.0,0 STARLINK-5938,1 55960U 23037AY  24104.74023898  .00001514  00000-0  13464-3 0  9994,2 55960  70.0012 216.7638 0002871 266.1625  93.9206 14.98337313 60373,6950.17,96.107,574.031,570.04,0.0
55960.0,STARLINK-5938,PAYLOAD,2024-04-14 12:59:35,14.98265693,0.0003062,70.0024,214.7451,255.1483,104.9337,0.0010916,0.00012934,0.0,0 STARLINK-5938,1 55960U 23037AY  24105.54138040  .00012934  00000-0  10916-2 0  9995,2 55960  70.0024 214.7451 0003062 255.1483 104.9337 14.98265693 60830,6950.392,96.111,574.385,570.129,0.0
55960.0,STARLINK-5938,PAYLOAD,2024-04-14 16:11:49,14.98335825,0.0002461,70.0026,214.4088,256.0001,104.0885,-0.00010224,-1.313e-05,0.0,0 STARLINK-5938,1 55960U 23037AY  24105.67488189 -.00001313  00000-0 -10224-3 0  9995,2 55960  70.0026 214.4088 0002461 256.0001 104.0885 14.98335825 60859,6950.175,96.107,573.75,570.329,0.0
55960.0,STARLINK-5938,PAYLOAD,2024-04-15 11:25:26,14.98326345,0.0002405,70.0027,212.3892,253.7523,106.3371,-8.0104e-05,-1.048e-05,0.0,0 STARLINK-5938,1 55960U 23037AY  24106.47600582 -.00001048  00000-0 -80104-4 0  9997,2 55960  70.0027 212.3892 0002405 253.7523 106.3371 14.98326345 60976,6950.204,96.107,573.741,570.398,0.0
55960.0,STARLINK-5938,PAYLOAD,2024-04-16 13:03:34,14.98340122,0.0002792,70.0016,209.6952,268.5079,91.576,0.00014339,1.619e-05,0.0,0 STARLINK-5938,1 55960U 23037AY  24107.54415079  .00001619  00000-0  14339-3 0  9999,2 55960  70.0016 209.6952 0002792 268.5079  91.5760 14.98340122 61134,6950.162,96.106,573.967,570.086,0.0
55960.0,STARLINK-5938,PAYLOAD,2024-04-16 14:39:42,14.98340921,0.0002814,70.0013,209.5266,269.1639,90.9198,0.00014357,1.621e-05,0.0,0 STARLINK-5938,1 55960U 23037AY  24107.61090988  .00001621  00000-0  14357-3 0  9998,2 55960  70.0013 209.5266 0002814 269.1639  90.9198 14.98340921 60800,6950.159,96.106,573.98,570.068,0.0
55960.0,STARLINK-5938,PAYLOAD,2024-04-16 16:15:50,14.98343913,0.0002773,70.0014,209.358,268.6186,91.4655,0.00016098,1.829e-05,0.0,0 STARLINK-5938,1 55960U 23037AY  24107.67766658  .00001829  00000-0  16098-3 0  9992,2 55960  70.0014 209.3580 0002773 268.6186  91.4655 14.98343913 60812,6950.15,96.106,573.942,570.088,0.0
55960.0,STARLINK-5938,PAYLOAD,2024-04-17 13:05:35,14.983326,0.0002621,70.0027,207.1724,253.0442,107.043,7.09e-05,7.53e-06,0.0,0 STARLINK-5938,1 55960U 23037AY  24108.54555377  .00000753  00000-0  70900-4 0  9991,2 55960  70.0027 207.1724 0002621 253.0442 107.0430 14.98332600 61285,6950.185,96.107,573.871,570.228,0.0
55960.0,STARLINK-5938,PAYLOAD,2024-04-17 14:41:44,14.98326985,0.0002543,70.003,207.0042,245.9661,114.1232,7.4086e-05,7.91e-06,0.0,0 STARLINK-5938,1 55960U 23037AY  24108.61231683  .00000791  00000-0  74086-4 0  9991,2 55960  70.0030 207.0042 0002543 245.9661 114.1232 14.98326985 60958,6950.202,96.107,573.835,570.3,0.0
55960.0,STARLINK-5938,PAYLOAD,2024-04-17 16:17:52,14.98328935,0.0003013,70.0007,206.832,269.2313,90.8501,1.1259e-05,4.1e-07,0.0,0 STARLINK-5938,1 55960U 23037AY  24108.67907791  .00000041  00000-0  11259-4 0  9998,2 55960  70.0007 206.8320 0003013 269.2313  90.8501 14.98328935 61300,6950.196,96.107,574.155,569.967,0.0
55960.0,STARLINK-5938,PAYLOAD,2024-04-18 13:07:37,14.98323985,0.0002562,70.0025,204.6463,256.8864,103.2009,-0.00012414,-1.574e-05,0.0,0 STARLINK-5938,1 55960U 23037AY  24109.54696735 -.00001574  00000-0 -12414-3 0  9995,2 55960  70.0025 204.6463 0002562 256.8864 103.2009 14.98323985 61431,6950.211,96.107,573.857,570.296,0.0
55960.0,STARLINK-5938,PAYLOAD,2024-04-18 14:43:45,14.98329104,0.0002514,70.002,204.4783,264.9969,95.0903,-0.00015896,-1.989e-05,0.0,0 STARLINK-5938,1 55960U 23037AY  24109.61372558 -.00001989  00000-0 -15896-3 0  9994,2 55960  70.0020 204.4783 0002514 264.9969  95.0903 14.98329104 61106,6950.196,96.107,573.808,570.313,0.0
55960.0,STARLINK-5938,PAYLOAD,2024-04-18 16:19:53,14.98331467,0.0002611,70.0021,204.3112,261.4526,98.6337,-0.00012946,-1.637e-05,0.0,0 STARLINK-5938,1 55960U 23037AY  24109.68048316 -.00001637  00000-0 -12946-3 0  9996,2 55960  70.0021 204.3112 0002611 261.4526  98.6337 14.98331467 61117,6950.188,96.107,573.868,570.239,0.0
55960.0,STARLINK-5938,PAYLOAD,2024-04-19 13:09:37,14.98341487,0.0002258,70.0022,202.1229,249.5316,110.56,-0.00011936,-1.517e-05,0.0,0 STARLINK-5938,1 55960U 23037AY  24110.54835604 -.00001517  00000-0 -11936-3 0  9992,2 55960  70.0022 202.1229 0002258 249.5316 110.5600 14.98341487 61585,6950.157,96.106,573.592,570.453,0.0
55960.0,STARLINK-5938,PAYLOAD,2024-04-19 14:45:45,14.98350406,0.0001853,70.0024,201.9551,233.5599,126.5389,-0.00013899,-1.752e-05,0.0,0 STARLINK-5938,1 55960U 23037AY  24110.61511026 -.00001752  00000-0 -13899-3 0  9990,2 55960  70.0024 201.9551 0001853 233.5599 126.5389 14.98350406 61254,6950.13,96.106,573.283,570.707,0.0
55960.0,STARLINK-5938,PAYLOAD,2024-04-19 16:21:53,14.98342059,0.0002543,70.0026,201.7879,236.1822,123.9096,7.99e-05,8.61e-06,0.0,0 STARLINK-5938,1 55960U 23037AY  24110.68186853  .00000861  00000-0  79900-4 0  9997,2 55960  70.0026 201.7879 0002543 236.1822 123.9096 14.98342059 61602,6950.156,96.106,573.788,570.253,0.0
55960.0,STARLINK-5938,PAYLOAD,2024-04-20 14:47:45,14.98345094,0.0002224,70.003,199.4298,250.7693,109.3226,0.00025195,2.916e-05,0.0,0 STARLINK-5938,1 55960U 23037AY  24111.61649762  .00002916  00000-0  25195-3 0  9993,2 55960  70.0030 199.4298 0002224 250.7693 109.3226 14.98345094 61402,6950.146,96.106,573.557,570.466,0.0
55960.0,STARLINK-5938,PAYLOAD,2024-04-20 16:26:15,14.96472531,0.0010148,70.0017,199.2705,196.1558,163.9278,-0.021289,-0.00234598,0.0,0 STARLINK-5938,1 55960U 23037AY  24111.68490374 -.00234598  00000-0 -21289-1 0  9996,2 55960  70.0017 199.2705 0010148 196.1558 163.9278 14.96472531 61751,6955.943,96.226,584.867,570.749,0.0
